[{"OBJECT_NAME":"STARLINK-5718","OBJECT_ID":"2023-020BD","EPOCH":"2026-03-09T04:01:06.724416","MEAN_MOTION":15.02529367,"ECCENTRICITY":7.752e-5,"INCLINATION":43.0032,"RA_OF_ASC_NODE":354.2529,"ARG_OF_PERICENTER":295.1639,"MEAN_ANOMALY":64.9123,"EPHEMERIS_TYPE":0,"CLASSIFICATION_TYPE":"U","NORAD_CAT_ID":55620,"ELEMENT_SET_NO":999,"REV_AT_EPOCH":16899,"BSTAR":3.4880115e-5,"MEAN_MOTION_DOT":2.68e-6,"MEAN_MOTION_DDOT":0},{"OBJECT_NAME":"ELECTRON KICK STAGE R\/B","OBJECT_ID":"2024-114G","EPOCH":"2026-03-09T16:42:35.427168","MEAN_MOTION":15.12630878,"ECCENTRICITY":0.00674954,"INCLINATION":97.9507,"RA_OF_ASC_NODE":118.387,"ARG_OF_PERICENTER":79.3604,"MEAN_ANOMALY":281.5218,"EPHEMERIS_TYPE":0,"CLASSIFICATION_TYPE":"U","NORAD_CAT_ID":60085,"ELEMENT_SET_NO":999,"REV_AT_EPOCH":9434,"BSTAR":0.00053349816,"MEAN_MOTION_DOT":9.787e-5,"MEAN_MOTION_DDOT":0}]
